$$SOE
2460154.500000000, A.D. 2023-Jul-29 00:00:00.0000, -4.376887892968236E+08, 7.894948488846987E+07, 8.781888319495752E+06,
2460161.500000000, A.D. 2023-Aug-05 00:00:00.0000, -4.388772915925936E+08, 6.866756850719954E+07, 9.174113978869371E+06,
2460168.500000000, A.D. 2023-Aug-12 00:00:00.0000, -4.398229563330404E+08, 5.834763504110484E+07, 9.561263874697376E+06,
2460175.500000000, A.D. 2023-Aug-19 00:00:00.0000, -4.405243859672214E+08, 4.799527765440437E+07, 9.943104805295508E+06,
2460182.500000000, A.D. 2023-Aug-26 00:00:00.0000, -4.409803034087369E+08, 3.761614704882681E+07, 1.031940469969092E+07,
2460189.500000000, A.D. 2023-Sep-02 00:00:00.0000, -4.411895545421983E+08, 2.721594936466786E+07, 1.068993275891652E+07,
2460196.500000000, A.D. 2023-Sep-09 00:00:00.0000, -4.411511107108839E+08, 1.680044386488379E+07, 1.105445958950515E+07,
2460203.500000000, A.D. 2023-Sep-16 00:00:00.0000, -4.408640710130518E+08, 6.375440341629462E+06, 1.141275730904315E+07,
2460210.500000000, A.D. 2023-Sep-23 00:00:00.0000, -4.403276639860058E+08, -4.053203470396067E+06, 1.176459960908271E+07,
2460217.500000000, A.D. 2023-Sep-30 00:00:00.0000, -4.395412490124050E+08, -1.447958328556162E+07, 1.210976190392456E+07,
2460224.500000000, A.D. 2023-Oct-07 00:00:00.0000, -4.385043197978671E+08, -2.489774900968219E+07, 1.244802173680448E+07,
2460231.500000000, A.D. 2023-Oct-14 00:00:00.0000, -4.372165088770023E+08, -3.530170814880538E+07, 1.277915907737389E+07,
2460238.500000000, A.D. 2023-Oct-21 00:00:00.0000, -4.356775899151430E+08, -4.568543028222521E+07, 1.310295634555777E+07,
2460245.500000000, A.D. 2023-Oct-28 00:00:00.0000, -4.338874792226020E+08, -5.604285034033892E+07, 1.341919847742196E+07,
2460252.500000000, A.D. 2023-Nov-04 00:00:00.0000, -4.318462377244146E+08, -6.636787146027885E+07, 1.372767308482204E+07,
2460259.500000000, A.D. 2023-Nov-11 00:00:00.0000, -4.295540732030851E+08, -7.665436802157937E+07, 1.402817064354859E+07,
2460266.500000000, A.D. 2023-Nov-18 00:00:00.0000, -4.270113425900564E+08, -8.689618892729086E+07, 1.432048468469895E+07,
2460273.500000000, A.D. 2023-Nov-25 00:00:00.0000, -4.242185542273356E+08, -9.708716110852368E+07, 1.460441198457350E+07,
2460280.500000000, A.D. 2023-Dec-02 00:00:00.0000, -4.211763700647987E+08, -1.072210932641499E+08, 1.487975274965684E+07,
2460287.500000000, A.D. 2023-Dec-09 00:00:00.0000, -4.178856077090240E+08, -1.172917798950247E+08, 1.514631078469829E+07,
2460294.500000000, A.D. 2023-Dec-16 00:00:00.0000, -4.143472420298577E+08, -1.272930056202526E+08, 1.540389361843041E+07,
2460301.500000000, A.D. 2023-Dec-23 00:00:00.0000, -4.105624059698109E+08, -1.372185490874581E+08, 1.565231261095203E+07,
2460308.500000000, A.D. 2023-Dec-30 00:00:00.0000, -4.065323918893704E+08, -1.470621854264900E+08, 1.589138325114425E+07,
2460315.500000000, A.D. 2024-Jan-06 00:00:00.0000, -4.022586552134768E+08, -1.568176896058208E+08, 1.612092561332315E+07,
2460322.500000000, A.D. 2024-Jan-13 00:00:00.0000, -3.977428171999308E+08, -1.664788424963162E+08, 1.634076453401806E+07,
2460329.500000000, A.D. 2024-Jan-20 00:00:00.0000, -3.929866655975972E+08, -1.760394365536848E+08, 1.655072964835547E+07,
2460336.500000000, A.D. 2024-Jan-27 00:00:00.0000, -3.879921552114769E+08, -1.854932804638199E+08, 1.675065552484601E+07,
2460343.500000000, A.D. 2024-Feb-03 00:00:00.0000, -3.827614087922984E+08, -1.948342036988443E+08, 1.694038185951883E+07,
2460350.500000000, A.D. 2024-Feb-10 00:00:00.0000, -3.772967179663969E+08, -2.040560612753014E+08, 1.711975367942343E+07,
2460357.500000000, A.D. 2024-Feb-17 00:00:00.0000, -3.716005440629253E+08, -2.131527387051476E+08, 1.728862154295109E+07,
2460364.500000000, A.D. 2024-Feb-24 00:00:00.0000, -3.656755187980296E+08, -2.221181571208099E+08, 1.744684173458366E+07,
2460371.500000000, A.D. 2024-Mar-02 00:00:00.0000, -3.595244447807439E+08, -2.309462786013394E+08, 1.759427644842762E+07,
2460378.500000000, A.D. 2024-Mar-09 00:00:00.0000, -3.531502956946907E+08, -2.396311117564731E+08, 1.773079394231786E+07,
2460385.500000000, A.D. 2024-Mar-16 00:00:00.0000, -3.465562157526473E+08, -2.481667173650674E+08, 1.785626864197595E+07,
2460392.500000000, A.D. 2024-Mar-23 00:00:00.0000, -3.397455185196350E+08, -2.565472129521520E+08, 1.797058129493749E+07,
2460399.500000000, A.D. 2024-Mar-30 00:00:00.0000, -3.327216873374122E+08, -2.647667763244669E+08, 1.807361937710933E+07,
2460406.500000000, A.D. 2024-Apr-06 00:00:00.0000, -3.254883770870855E+08, -2.728196514260032E+08, 1.816527745271078E+07,
2460413.500000000, A.D. 2024-Apr-13 00:00:00.0000, -3.180494137337502E+08, -2.807001556708989E+08, 1.824545722988719E+07,
2460420.500000000, A.D. 2024-Apr-20 00:00:00.0000, -3.104087926004519E+08, -2.884026860682877E+08, 1.831406761784284E+07,
2460427.500000000, A.D. 2024-Apr-27 00:00:00.0000, -3.025706768821073E+08, -2.959217246898373E+08, 1.837102487835234E+07,
2460434.500000000, A.D. 2024-May-04 00:00:00.0000, -2.945393963043182E+08, -3.032518441725842E+08, 1.841625280547337E+07,
2460441.500000000, A.D. 2024-May-11 00:00:00.0000, -2.863194456820279E+08, -3.103877133487059E+08, 1.844968290260895E+07,
2460448.500000000, A.D. 2024-May-18 00:00:00.0000, -2.779154832904180E+08, -3.173241029706954E+08, 1.847125455065611E+07,
2460455.500000000, A.D. 2024-May-25 00:00:00.0000, -2.693323290186027E+08, -3.240558915288107E+08, 1.848091516407603E+07,
2460462.500000000, A.D. 2024-Jun-01 00:00:00.0000, -2.605749622421762E+08, -3.305780712077063E+08, 1.847862032450800E+07,
2460469.500000000, A.D. 2024-Jun-08 00:00:00.0000, -2.516485191650264E+08, -3.368857539945656E+08, 1.846433386734329E+07,
2460476.500000000, A.D. 2024-Jun-15 00:00:00.0000, -2.425582892287469E+08, -3.429741773825874E+08, 1.843802792909963E+07,
2460483.500000000, A.D. 2024-Jun-22 00:00:00.0000, -2.333097115933558E+08, -3.488387084825432E+08, 1.839968314373431E+07,
2460490.500000000, A.D. 2024-Jun-29 00:00:00.0000, -2.239083738093274E+08, -3.544748483503324E+08, 1.834928903341472E+07,
2460497.500000000, A.D. 2024-Jul-06 00:00:00.0000, -2.143600100352131E+08, -3.598782389898607E+08, 1.828684414887729E+07,
2460504.500000000, A.D. 2024-Jul-13 00:00:00.0000, -2.046704968528097E+08, -3.650446701957064E+08, 1.821235601122765E+07,
2460511.500000000, A.D. 2024-Jul-20 00:00:00.0000, -1.948458486673105E+08, -3.699700850737529E+08, 1.812584113101637E+07,
2460518.500000000, A.D. 2024-Jul-27 00:00:00.0000, -1.848922133499602E+08, -3.746505851849300E+08, 1.802732508595768E+07,
2460525.500000000, A.D. 2024-Aug-03 00:00:00.0000, -1.748158678517952E+08, -3.790824356725717E+08, 1.791684260100625E+07,
2460532.500000000, A.D. 2024-Aug-10 00:00:00.0000, -1.646232136245721E+08, -3.832620703640855E+08, 1.779443761449461E+07,
2460539.500000000, A.D. 2024-Aug-17 00:00:00.0000, -1.543207718045308E+08, -3.871860968125147E+08, 1.766016332710582E+07,
2460546.500000000, A.D. 2024-Aug-24 00:00:00.0000, -1.439151781357199E+08, -3.908513012881384E+08, 1.751408222881654E+07,
2460553.500000000, A.D. 2024-Aug-31 00:00:00.0000, -1.334131775232069E+08, -3.942546537694474E+08, 1.735626608779339E+07,
2460560.500000000, A.D. 2024-Sep-07 00:00:00.0000, -1.228216178577421E+08, -3.973933127948166E+08, 1.718679587770052E+07,
2460567.500000000, A.D. 2024-Sep-14 00:00:00.0000, -1.121474430348966E+08, -4.002646291662081E+08, 1.700576171666494E+07,
2460574.500000000, A.D. 2024-Sep-21 00:00:00.0000, -1.013976872065187E+08, -4.028661480780085E+08, 1.681326303728750E+07,
2460581.500000000, A.D. 2024-Sep-28 00:00:00.0000, -9.057947076052000E+07, -4.051956128831055E+08, 1.660940876799168E+07,
2460588.500000000, A.D. 2024-Oct-05 00:00:00.0000, -7.969999436733489E+07, -4.072509704804437E+08, 1.639431718859851E+07,
2460595.500000000, A.D. 2024-Oct-12 00:00:00.0000, -6.876653146200497E+07, -4.090303753318682E+08, 1.616811573629689E+07,
2460602.500000000, A.D. 2024-Oct-19 00:00:00.0000, -5.778642092156311E+07, -4.105321923687757E+08, 1.593094090020919E+07,
2460609.500000000, A.D. 2024-Oct-26 00:00:00.0000, -4.676705998036741E+07, -4.117549995818993E+08, 1.568293814202043E+07,
2460616.500000000, A.D. 2024-Nov-02 00:00:00.0000, -3.571589713864807E+07, -4.126975904355362E+08, 1.542426180715886E+07,
2460623.500000000, A.D. 2024-Nov-09 00:00:00.0000, -2.464042498170403E+07, -4.133589760778950E+08, 1.515507501958102E+07,
2460630.500000000, A.D. 2024-Nov-16 00:00:00.0000, -1.354817289808453E+07, -4.137383873393359E+08, 1.487554955798903E+07,
2460637.500000000, A.D. 2024-Nov-23 00:00:00.0000, -2.446699664114853E+06, -4.138352765610399E+08, 1.458586570534602E+07,
2460644.500000000, A.D. 2024-Nov-30 00:00:00.0000, 8.656414298797332E+06, -4.136493192902660E+08, 1.428621204946277E+07,
2460651.500000000, A.D. 2024-Dec-07 00:00:00.0000, 1.975357539827768E+07, -4.131804154157912E+08, 1.397678523096308E+07,
2460658.500000000, A.D. 2024-Dec-14 00:00:00.0000, 3.083718537218994E+07, -4.124286885142134E+08, 1.365778980219713E+07,
2460665.500000000, A.D. 2024-Dec-21 00:00:00.0000, 4.189964748255273E+07, -4.113944846422992E+08, 1.332943830863124E+07,
2460672.500000000, A.D. 2024-Dec-28 00:00:00.0000, 5.293337235959096E+07, -4.100783735379855E+08, 1.299195116950440E+07,
2460679.500000000, A.D. 2025-Jan-04 00:00:00.0000, 6.393078607825094E+07, -4.084811498523065E+08, 1.264555631423128E+07,
2460686.500000000, A.D. 2025-Jan-11 00:00:00.0000, 7.488433862999468E+07, -4.066038327526815E+08, 1.229048887801671E+07,
2460693.500000000, A.D. 2025-Jan-18 00:00:00.0000, 8.578651185653430E+07, -4.044476648167951E+08, 1.192699096648201E+07,
2460700.500000000, A.D. 2025-Jan-25 00:00:00.0000, 9.662982707259472E+07, -4.020141106926068E+08, 1.155531142895272E+07,
2460707.500000000, A.D. 2025-Feb-01 00:00:00.0000, 1.074068525507532E+08, -3.993048555563848E+08, 1.117570562132233E+07,
2460714.500000000, A.D. 2025-Feb-08 00:00:00.0000, 1.181102109104037E+08, -3.963218033513819E+08, 1.078843515541250E+07,
2460721.500000000, A.D. 2025-Feb-15 00:00:00.0000, 1.287325864239549E+08, -3.930670748301203E+08, 1.039376763114291E+07,
$$EOE